STARLINK-2406           
1 47821U 21018AL  25013.59956922  .00006210  00000+0  43533-3 0  9991
2 47821  53.0557 337.4874 0001283  79.9712 280.1422 15.06407344213272
STARLINK-2407           
1 47822U 21018AM  25013.60875137  .00005140  00000+0  36362-3 0  9995
2 47822  53.0563 347.4193 0001712  85.9965 274.1220 15.06406062213140
STARLINK-2408           
1 47823U 21018AN  25013.62442948  .00008696  00000+0  60199-3 0  9992
2 47823  53.0555 337.3528 0001464  89.4433 270.6724 15.06399656213280
STARLINK-2409           
1 47824U 21018AP  25013.87966125 -.00018875  00000+0 -12512-2 0  9995
2 47824  53.0552 336.2159 0000347  52.0117 308.0904 15.06413159213315
STARLINK-2410           
1 47825U 21018AQ  25013.63273682  .00005930  00000+0  41655-3 0  9996
2 47825  53.0554 337.3242 0001632  93.1647 266.9529 15.06410889213283
STARLINK-2411           
1 47826U 21018AR  25013.89444342  .00008767  00000+0  60655-3 0  9990
2 47826  53.0560 336.1502 0002182  89.3085 270.8154 15.06411147213322
STARLINK-2413           
1 47827U 21018AS  25013.87696147  .00002287  00000+0  17236-3 0  9999
2 47827  53.0571 326.4703 0001628 101.6361 258.4811 15.06398240213510
STARLINK-2415           
1 47828U 21018AT  25013.94512160  .00000082  00000+0  24421-4 0  9996
2 47828  53.0566 345.9294 0001598  95.7327 264.3844 15.06398762213192
STARLINK-2416           
1 47829U 21018AU  25013.36642896  .00002751  00000+0  20353-3 0  9997
2 47829  53.0559 348.5282 0001411 107.6793 252.4350 15.06401244213094
STARLINK-2419           
1 47830U 21018AV  25013.62812530  .00003481  00000+0  25239-3 0  9991
2 47830  53.0565 347.3456 0001242  77.1119 283.0008 15.06407728213136
STARLINK-2420           
1 47831U 21018AW  25013.82763252  .00004088  00000+0  29313-3 0  9991
2 47831  53.0547 321.4511 0001756 107.2515 252.8667 15.06402756213576
STARLINK-2422           
1 47832U 21018AX  25013.91655331 -.00000009  00000+0  18317-4 0  9993
2 47832  53.0583 336.0539 0001995 105.4116 254.7093 15.06399239213329
STARLINK-2423           
1 47833U 21018AY  25013.61063202  .00002711  00000+0  20091-3 0  9993
2 47833  53.0573 337.4254 0001961  82.8448 277.2764 15.06391738213339
STARLINK-2424           
1 47834U 21018AZ  25013.62167888  .00006933  00000+0  48386-3 0  9997
2 47834  53.0566 337.3737 0001535  86.2169 273.8996 15.06400637213330
STARLINK-2426           
1 47836U 21018BB  25013.90551211  .00002985  00000+0  21917-3 0  9991
2 47836  53.0588 336.1920 0001634  55.7328 304.3816 15.06402645213326
STARLINK-2427           
1 47837U 21018BC  25013.84837086  .00009954  00000+0  68601-3 0  9996
2 47837  53.0558 316.3570 0001486  86.5836 273.5323 15.06411164213603
STARLINK-2429           
1 47838U 21018BD  25013.86126775  .00000578  00000+0  57714-4 0  9992
2 47838  53.0579 336.3038 0001694  97.9564 262.1618 15.06403443213313
STARLINK-2431           
1 47839U 21018BE  25013.95619026  .00011834  00000+0  81178-3 0  9996
2 47839  53.0565 305.8738 0001190  97.2775 262.8350 15.06410735213766
STARLINK-2432           
1 47840U 21018BF  25013.83360385  .00044814  00000+0  30017-2 0  9995
2 47840  53.0581 316.4268 0001676 106.8198 253.2975 15.06482529213595
STARLINK-2433           
1 47841U 21018BG  25013.82994674  .00007779  00000+0  54050-3 0  9992
2 47841  53.0550 316.4432 0002297  83.1040 277.0210 15.06403937213590
STARLINK-2435           
1 47843U 21018BJ  25013.92163108  .00002547  00000+0  18985-3 0  9990
2 47843  53.0574 341.0258 0001618 110.4159 249.7004 15.06388677213274
STARLINK-2446           
1 47844U 21018BK  25013.58850181  .00005361  00000+0  37857-3 0  9993
2 47844  53.0554 337.5204 0002338  82.9491 277.1764 15.06399180213275
STARLINK-2453           
1 47845U 21018BL  25013.34155638  .00015620  00000+0  10648-2 0  9990
2 47845  53.0557 338.6364 0001463  95.9484 264.1671 15.06414327213243
STARLINK-2258           
1 47860U 21021A   25013.91667824  .00530110  00000+0  17210-2 0  9997
2 47860  53.0497 345.8839 0001525 128.8096 222.7590 15.88910387  5992
STARLINK-2280           
1 47861U 21021B   25013.95755034  .00000062  00000+0  23069-4 0  9992
2 47861  53.0573 350.8672 0002215  92.8477 267.2766 15.06398918213001
STARLINK-2291           
1 47862U 21021C   25013.34063472  .00007440  00000+0  51781-3 0  9992
2 47862  53.0573 348.6375 0001740  92.2826 267.8362 15.06401723212973
STARLINK-2293           
1 47863U 21021D   25013.36551148  .00011838  00000+0  81205-3 0  9997
2 47863  53.0561 358.5249 0001384  90.3280 269.7868 15.06410274212847
STARLINK-2304           
1 47864U 21021E   25013.91667824  .00384203  00000+0  19801-2 0  9999
2 47864  53.0526 328.3131 0001030 120.4456 124.8727 15.79554262212821
STARLINK-2310           
1 47865U 21021F   25013.91667824  .00168977  00000+0  17631-2 0  9997
2 47865  53.0427 336.2141 0002081 108.7338 161.2291 15.63468306  5979
STARLINK-2320           
1 47866U 21021G   25013.91667824  .00223895  00000+0  21300-2 0  9997
2 47866  53.0541 338.2949 0000995 126.5506 144.1755 15.65612030  5862
STARLINK-2321           
1 47867U 21021H   25013.91667824  .00131540  00000+0  11652-2 0  9992
2 47867  53.0517 321.0134 0001995 126.4664 279.3866 15.67707417  5890
STARLINK-2323           
1 47868U 21021J   25013.19781060  .00017901  00000+0  12174-2 0  9996
2 47868  53.0552 299.2801 0001380  86.8508 273.2639 15.06405448213660
STARLINK-2326           
1 47870U 21021L   25013.68296031  .00004108  00000+0  29451-3 0  9994
2 47870  53.0548  12.1007 0001261  94.5851 265.5282 15.06397796212576
STARLINK-2327           
1 47871U 21021M   25013.91667824  .00786312  28185-3  18506-2 0  9993
2 47871  53.0414 320.0881 0001439 110.4305 321.2966 15.96325489  6051
STARLINK-2329           
1 47873U 21021P   25013.90826226  .00004313  00000+0  30826-3 0  9993
2 47873  53.0553 346.0920 0001494  83.5073 276.6086 15.06400558213050
STARLINK-2330           
1 47874U 21021Q   25013.78525917  .00011426  00000+0  78480-3 0  9994
2 47874  53.0537 301.6562 0001908  75.3229 284.7972 15.06394762213675
STARLINK-2331           
1 47875U 21021R   25013.91667824  .00779386  27983-3  17555-2 0  9998
2 47875  53.0374 324.5625 0001638 124.1248  17.4780 15.97124057212881
STARLINK-2332           
1 47876U 21021S   25013.91667824  .00187564  00000+0  13899-2 0  9994
2 47876  53.0408 331.0660 0002431 120.3185 110.8500 15.71820890  5958
STARLINK-2333           
1 47877U 21021T   25013.91667824  .00008425  00000+0  12679-3 0  9999
2 47877  53.0543 339.8477 0000950 101.2984 333.1916 15.55767927  5954
STARLINK-2335           
1 47878U 21021U   25013.91667824  .00198492  00000+0  19812-2 0  9999
2 47878  53.0532 338.5743 0001255 120.5421 146.4621 15.64490649212697
STARLINK-2336           
1 47879U 21021V   25013.71245448  .00006266  00000+0  43924-3 0  9991
2 47879  53.0544  11.9649 0001768  98.0081 262.1109 15.06396968212858
STARLINK-2337           
1 47880U 21021W   25013.91667824  .00157110  00000+0  12046-2 0  9996
2 47880  53.0477 341.3918 0002145 115.3944 352.5429 15.71112642  6009
STARLINK-2339           
1 47881U 21021X   25013.96071765  .04506866  11984-4  12433-2 0  9993
2 47881  53.0363 343.2132 0005034 171.1266 295.7374 16.27200858212623
STARLINK-2340           
1 47882U 21021Y   25013.33761216  .00057612  00000+0  24544-2 0  9996
2 47882  53.0541 350.0694 0005966  80.8577 279.3093 15.22421454213129
STARLINK-2342           
1 47883U 21021Z   25013.65807398  .00006071  00000+0  42611-3 0  9993
2 47883  53.0550   2.2129 0000960  95.2159 264.8939 15.06397418212989
STARLINK-2343           
1 47884U 21021AA  25013.70738262  .00003071  00000+0  22496-3 0  9999
2 47884  53.0573   6.9843 0001543 105.5287 254.5872 15.06403211212749
STARLINK-2344           
1 47885U 21021AB  25013.91667824  .00303778  00000+0  37939-2 0  9992
2 47885  53.0536 352.3479 0000833 100.6933 189.7980 15.58309571  5905
STARLINK-2346           
1 47887U 21021AD  25013.39406776  .00003584  00000+0  25934-3 0  9998
2 47887  53.0579   8.3958 0001870 106.2637 253.8558 15.06407785212700
STARLINK-2348           
1 47888U 21021AE  25013.94788887  .00005731  00000+0  40332-3 0  9991
2 47888  53.0563 355.9107 0002279 119.4716 240.6501 15.06398899212931
STARLINK-2349           
1 47889U 21021AF  25013.85557653  .23343773  12640-4  36218-3 0  9999
2 47889  53.0252 327.0335 0004366 310.6763 141.2979 16.48244316212842
STARLINK-2352           
1 47892U 21021AJ  25013.91667824  .00155449  00000+0  13633-2 0  9995
2 47892  53.0531 303.4623 0001369 130.8356 336.3779 15.67865598  5884
STARLINK-2354           
1 47894U 21021AL  25013.25862371  .00013277  00000+0  90863-3 0  9991
2 47894  53.0556 359.0050 0001479  93.7077 266.4081 15.06396854212777
STARLINK-2355           
1 47895U 21021AM  25013.33602054  .00011296  00000+0  77627-3 0  9993
2 47895  53.0552 358.6578 0001302  88.6148 271.4990 15.06388468212813
STARLINK-2356           
1 47896U 21021AN  25013.72719141  .00008230  00000+0  57062-3 0  9998
2 47896  53.0564  11.9004 0001624  92.7078 267.4097 15.06407539212639
STARLINK-2358           
1 47898U 21021AQ  25013.39498907  .00006796  00000+0  47457-3 0  9999
2 47898  53.0560 358.3991 0001434  90.7552 269.3601 15.06407070212793
STARLINK-2361           
1 47901U 21021AT  25013.24848562 -.00001258  00000+0 -65558-4 0  9997
2 47901  53.0581 349.1360 0001974  70.7266 289.3936 15.06390494212950
STARLINK-2362           
1 47902U 21021AU  25013.50470113  .01317219  10207-2  19293-2 0  9992
2 47902  53.0523 342.0790 0001471  48.3131  56.5685 16.04721356212599
STARLINK-2363           
1 47903U 21021AV  25013.91837446  .00002984  00000+0  21911-3 0  9991
2 47903  53.0583 346.0309 0002394  95.0389 265.0874 15.06404398213408
STARLINK-2364           
1 47904U 21021AW  25013.65024941  .00008991  00000+0  62167-3 0  9993
2 47904  53.0560 347.2473 0001189  86.9470 273.1655 15.06403321213008
